[{"OBJECT_NAME":"SWARM B","OBJECT_ID":"2013-067A","EPOCH":"2026-03-09T22:20:48.706656","MEAN_MOTION":15.27862638,"ECCENTRICITY":0.00036996,"INCLINATION":87.749,"RA_OF_ASC_NODE":12.4162,"ARG_OF_PERICENTER":86.3179,"MEAN_ANOMALY":273.8493,"EPHEMERIS_TYPE":0,"CLASSIFICATION_TYPE":"U","NORAD_CAT_ID":39451,"ELEMENT_SET_NO":999,"REV_AT_EPOCH":66808,"BSTAR":0.00020534236,"MEAN_MOTION_DOT":5.616e-5,"MEAN_MOTION_DDOT":0},{"OBJECT_NAME":"STARLINK-31426","OBJECT_ID":"2024-049U","EPOCH":"2026-03-09T08:41:40.495200","MEAN_MOTION":15.27588405,"ECCENTRICITY":0.00010298,"INCLINATION":43.0019,"RA_OF_ASC_NODE":145.5804,"ARG_OF_PERICENTER":287.9393,"MEAN_ANOMALY":72.1347,"EPHEMERIS_TYPE":0,"CLASSIFICATION_TYPE":"U","NORAD_CAT_ID":59249,"ELEMENT_SET_NO":999,"REV_AT_EPOCH":11234,"BSTAR":-0.00017413716,"MEAN_MOTION_DOT":-5.052e-5,"MEAN_MOTION_DDOT":0}]
